[{"OBJECT_NAME":"JILIN-1 GAOFEN 03D48","OBJECT_ID":"2022-167P","EPOCH":"2026-03-09T23:48:37.804608","MEAN_MOTION":15.32947339,"ECCENTRICITY":0.00075954,"INCLINATION":97.6781,"RA_OF_ASC_NODE":234.4968,"ARG_OF_PERICENTER":111.3084,"MEAN_ANOMALY":248.8969,"EPHEMERIS_TYPE":0,"CLASSIFICATION_TYPE":"U","NORAD_CAT_ID":54695,"ELEMENT_SET_NO":999,"REV_AT_EPOCH":18018,"BSTAR":0.00049677114,"MEAN_MOTION_DOT":0.00015755,"MEAN_MOTION_DDOT":0},{"OBJECT_NAME":"STARLINK-31368","OBJECT_ID":"2024-031F","EPOCH":"2026-03-09T20:44:20.889888","MEAN_MOTION":15.30200677,"ECCENTRICITY":7.079e-5,"INCLINATION":53.1605,"RA_OF_ASC_NODE":295.6265,"ARG_OF_PERICENTER":129.3975,"MEAN_ANOMALY":230.7088,"EPHEMERIS_TYPE":0,"CLASSIFICATION_TYPE":"U","NORAD_CAT_ID":58970,"ELEMENT_SET_NO":999,"REV_AT_EPOCH":11656,"BSTAR":3.3253478e-5,"MEAN_MOTION_DOT":6.26e-6,"MEAN_MOTION_DDOT":0}]
